[{"OBJECT_NAME":"FENGYUN 3C","OBJECT_ID":"2013-052A","EPOCH":"2026-03-09T23:00:17.582976","MEAN_MOTION":14.15729116,"ECCENTRICITY":0.00138136,"INCLINATION":98.4893,"RA_OF_ASC_NODE":47.4396,"ARG_OF_PERICENTER":312.3692,"MEAN_ANOMALY":47.6312,"EPHEMERIS_TYPE":0,"CLASSIFICATION_TYPE":"U","NORAD_CAT_ID":39260,"ELEMENT_SET_NO":999,"REV_AT_EPOCH":64452,"BSTAR":0.00010509622,"MEAN_MOTION_DOT":1.65e-6,"MEAN_MOTION_DDOT":0},{"OBJECT_NAME":"CZ-6A DEB","OBJECT_ID":"2022-151AT","EPOCH":"2026-03-09T22:28:50.854944","MEAN_MOTION":14.10798034,"ECCENTRICITY":0.00564568,"INCLINATION":98.8985,"RA_OF_ASC_NODE":80.2509,"ARG_OF_PERICENTER":234.0765,"MEAN_ANOMALY":125.5159,"EPHEMERIS_TYPE":0,"CLASSIFICATION_TYPE":"U","NORAD_CAT_ID":54300,"ELEMENT_SET_NO":999,"REV_AT_EPOCH":17036,"BSTAR":0.00036898826,"MEAN_MOTION_DOT":6.26e-6,"MEAN_MOTION_DDOT":0}]
